ICEYE-X53               
1 64584U 25135BJ  26199.29188713  .00001354  00000+0  11110-3 0  9998
2 64584  97.7358 315.9360 0002055 164.9798 195.1487 15.00901267 58741
ICEYE-X65               
1 66300U 25248H   26199.08820144  .00001540  00000+0  11467-3 0  9991
2 66300  45.4069 331.6862 0005753 213.7359 146.3157 15.07938716 40181
ICEYE-X66               
1 66301U 25248J   26199.08349794  .00001748  00000+0  12388-3 0  9992
2 66301  45.4026 330.7614 0005475 209.9770 150.0799 15.09188857 40173
ICEYE-X67               
1 66302U 25248K   26198.77724427  .00001674  00000+0  11939-3 0  9997
2 66302  45.4060 331.9548 0006972 208.1995 151.8510 15.09168753 40144
ICEYE-X58               
1 66751U 25276CP  26199.18123862  .00001394  00000+0  73250-4 0  9992
2 66751  97.4196 271.9984 0002457 199.6122 160.5018 15.17315720 35114
ICEYE-X59               
1 66752U 25276CQ  26199.14615956  .00002570  00000+0  20701-3 0  9998
2 66752  97.4397 269.1209 0001147 133.9310 226.2010 15.00768474 34911
ICEYE-X60               
1 66753U 25276CR  26198.18658909  .00001984  00000+0  12355-3 0  9991
2 66753  97.4241 269.9598 0002281 357.9600   2.1620 15.10704246 34892
ICEYE-X61               
1 66754U 25276CS  26199.13096846  .00001544  00000+0  77867-4 0  9996
2 66754  97.4192 272.0444 0002328 201.5249 158.5887 15.18618497 35115
ICEYE-X62               
1 66755U 25276CT  26197.74931553  .00002915  00000+0  18243-3 0  9990
2 66755  97.4179 269.0335 0001129 210.4552 149.6612 15.10153672 34791
ICEYE-X63               
1 67372U 26004K   26199.00796045  .00000455  00000+0  55085-4 0  9995
2 67372  97.8015 197.1676 0005238  44.6131 315.5507 14.88351946 27881
ICEYE-X64               
1 67373U 26004L   26199.25909029  .00000584  00000+0  69573-4 0  9991
2 67373  97.8029 197.3328 0007089  45.8440 314.3358 14.87991451 27910
ICEYE-X71               
1 68494U 26067CG  26199.11979865  .00120139  00000+0  11879-1 0  9997
2 68494  97.7607 156.8772 0003680 304.0498  56.0370 14.91251509 16331
ICEYE-X73               
1 68496U 26067CJ  26199.14502318  .00001113  00000+0  11432-3 0  9994
2 68496  97.7624 156.9965 0001779 142.8860 217.2482 14.92355742 16346
ICEYE-X75               
1 68497U 26067CK  26198.88162637  .00000498  00000+0  54366-4 0  9990
2 68497  97.7607 156.7027 0001664 140.7892 219.3448 14.92176429 16304
ICEYE-X74               
1 68500U 26067CN  26199.11754733  .00001155  00000+0  12006-3 0  9991
2 68500  97.7633 156.8917 0000619 328.5986  31.5196 14.91800739 16330
ICEYE-X76               
1 68502U 26067CQ  26198.84521949  .00000520  00000+0  57113-4 0  9997
2 68502  97.7641 156.6417 0000445 283.6065  76.5105 14.91753989 16298
