{"fetched_at":"2026-07-18T17:29:59.338Z","source":"https://celestrak.org/NORAD/elements/gp.php?NAME=ICEYE&FORMAT=JSON","constellation":"iceye","records":[{"OBJECT_NAME":"ICEYE-X53","OBJECT_ID":"2025-135BJ","EPOCH":"2026-07-18T07:00:19.048032","CLASSIFICATION_TYPE":"U","MEAN_MOTION":15.00901267,"ECCENTRICITY":0.00020556,"INCLINATION":97.7358,"RA_OF_ASC_NODE":315.936,"ARG_OF_PERICENTER":164.9798,"MEAN_ANOMALY":195.1487,"EPHEMERIS_TYPE":0,"NORAD_CAT_ID":64584,"ELEMENT_SET_NO":999,"REV_AT_EPOCH":5874,"BSTAR":0.00011110425,"MEAN_MOTION_DOT":0.00001354,"MEAN_MOTION_DDOT":0},{"OBJECT_NAME":"ICEYE-X65","OBJECT_ID":"2025-248H","EPOCH":"2026-07-18T02:07:00.604416","CLASSIFICATION_TYPE":"U","MEAN_MOTION":15.07938716,"ECCENTRICITY":0.00057536,"INCLINATION":45.4069,"RA_OF_ASC_NODE":331.6862,"ARG_OF_PERICENTER":213.7359,"MEAN_ANOMALY":146.3157,"EPHEMERIS_TYPE":0,"NORAD_CAT_ID":66300,"ELEMENT_SET_NO":999,"REV_AT_EPOCH":4018,"BSTAR":0.00011467031,"MEAN_MOTION_DOT":0.0000154,"MEAN_MOTION_DDOT":0},{"OBJECT_NAME":"ICEYE-X66","OBJECT_ID":"2025-248J","EPOCH":"2026-07-18T02:00:14.222016","CLASSIFICATION_TYPE":"U","MEAN_MOTION":15.09188857,"ECCENTRICITY":0.00054758,"INCLINATION":45.4026,"RA_OF_ASC_NODE":330.7614,"ARG_OF_PERICENTER":209.977,"MEAN_ANOMALY":150.0799,"EPHEMERIS_TYPE":0,"NORAD_CAT_ID":66301,"ELEMENT_SET_NO":999,"REV_AT_EPOCH":4017,"BSTAR":0.00012388396,"MEAN_MOTION_DOT":0.00001748,"MEAN_MOTION_DDOT":0},{"OBJECT_NAME":"ICEYE-X67","OBJECT_ID":"2025-248K","EPOCH":"2026-07-17T18:39:13.904928","CLASSIFICATION_TYPE":"U","MEAN_MOTION":15.09168753,"ECCENTRICITY":0.00069728,"INCLINATION":45.406,"RA_OF_ASC_NODE":331.9548,"ARG_OF_PERICENTER":208.1995,"MEAN_ANOMALY":151.851,"EPHEMERIS_TYPE":0,"NORAD_CAT_ID":66302,"ELEMENT_SET_NO":999,"REV_AT_EPOCH":4014,"BSTAR":0.00011938658,"MEAN_MOTION_DOT":0.00001674,"MEAN_MOTION_DDOT":0},{"OBJECT_NAME":"ICEYE-X58","OBJECT_ID":"2025-276CP","EPOCH":"2026-07-18T04:20:59.016768","CLASSIFICATION_TYPE":"U","MEAN_MOTION":15.1731572,"ECCENTRICITY":0.0002457,"INCLINATION":97.4196,"RA_OF_ASC_NODE":271.9984,"ARG_OF_PERICENTER":199.6122,"MEAN_ANOMALY":160.5018,"EPHEMERIS_TYPE":0,"NORAD_CAT_ID":66751,"ELEMENT_SET_NO":999,"REV_AT_EPOCH":3511,"BSTAR":0.000073250475,"MEAN_MOTION_DOT":0.00001394,"MEAN_MOTION_DDOT":0},{"OBJECT_NAME":"ICEYE-X59","OBJECT_ID":"2025-276CQ","EPOCH":"2026-07-18T03:30:28.185984","CLASSIFICATION_TYPE":"U","MEAN_MOTION":15.00768474,"ECCENTRICITY":0.00011478,"INCLINATION":97.4397,"RA_OF_ASC_NODE":269.1209,"ARG_OF_PERICENTER":133.931,"MEAN_ANOMALY":226.201,"EPHEMERIS_TYPE":0,"NORAD_CAT_ID":66752,"ELEMENT_SET_NO":999,"REV_AT_EPOCH":3491,"BSTAR":0.00020700767,"MEAN_MOTION_DOT":0.0000257,"MEAN_MOTION_DDOT":0},{"OBJECT_NAME":"ICEYE-X60","OBJECT_ID":"2025-276CR","EPOCH":"2026-07-17T04:28:41.297376","CLASSIFICATION_TYPE":"U","MEAN_MOTION":15.10704246,"ECCENTRICITY":0.00022814,"INCLINATION":97.4241,"RA_OF_ASC_NODE":269.9598,"ARG_OF_PERICENTER":357.96,"MEAN_ANOMALY":2.162,"EPHEMERIS_TYPE":0,"NORAD_CAT_ID":66753,"ELEMENT_SET_NO":999,"REV_AT_EPOCH":3489,"BSTAR":0.00012354587,"MEAN_MOTION_DOT":0.00001984,"MEAN_MOTION_DDOT":0},{"OBJECT_NAME":"ICEYE-X61","OBJECT_ID":"2025-276CS","EPOCH":"2026-07-18T03:08:35.674944","CLASSIFICATION_TYPE":"U","MEAN_MOTION":15.18618497,"ECCENTRICITY":0.00023288,"INCLINATION":97.4192,"RA_OF_ASC_NODE":272.0444,"ARG_OF_PERICENTER":201.5249,"MEAN_ANOMALY":158.5887,"EPHEMERIS_TYPE":0,"NORAD_CAT_ID":66754,"ELEMENT_SET_NO":999,"REV_AT_EPOCH":3511,"BSTAR":0.000077867333,"MEAN_MOTION_DOT":0.00001544,"MEAN_MOTION_DDOT":0},{"OBJECT_NAME":"ICEYE-X62","OBJECT_ID":"2025-276CT","EPOCH":"2026-07-16T17:59:00.861792","CLASSIFICATION_TYPE":"U","MEAN_MOTION":15.10153672,"ECCENTRICITY":0.00011291,"INCLINATION":97.4179,"RA_OF_ASC_NODE":269.0335,"ARG_OF_PERICENTER":210.4552,"MEAN_ANOMALY":149.6612,"EPHEMERIS_TYPE":0,"NORAD_CAT_ID":66755,"ELEMENT_SET_NO":999,"REV_AT_EPOCH":3479,"BSTAR":0.00018242548,"MEAN_MOTION_DOT":0.00002915,"MEAN_MOTION_DDOT":0},{"OBJECT_NAME":"ICEYE-X63","OBJECT_ID":"2026-004K","EPOCH":"2026-07-18T00:11:27.782880","CLASSIFICATION_TYPE":"U","MEAN_MOTION":14.88351946,"ECCENTRICITY":0.00052384,"INCLINATION":97.8015,"RA_OF_ASC_NODE":197.1676,"ARG_OF_PERICENTER":44.6131,"MEAN_ANOMALY":315.5507,"EPHEMERIS_TYPE":0,"NORAD_CAT_ID":67372,"ELEMENT_SET_NO":999,"REV_AT_EPOCH":2788,"BSTAR":0.000055084671,"MEAN_MOTION_DOT":0.00000455,"MEAN_MOTION_DDOT":0},{"OBJECT_NAME":"ICEYE-X64","OBJECT_ID":"2026-004L","EPOCH":"2026-07-18T06:13:05.401056","CLASSIFICATION_TYPE":"U","MEAN_MOTION":14.87991451,"ECCENTRICITY":0.00070893,"INCLINATION":97.8029,"RA_OF_ASC_NODE":197.3328,"ARG_OF_PERICENTER":45.844,"MEAN_ANOMALY":314.3358,"EPHEMERIS_TYPE":0,"NORAD_CAT_ID":67373,"ELEMENT_SET_NO":999,"REV_AT_EPOCH":2791,"BSTAR":0.000069573202,"MEAN_MOTION_DOT":0.00000584,"MEAN_MOTION_DDOT":0},{"OBJECT_NAME":"ICEYE-X71","OBJECT_ID":"2026-067CG","EPOCH":"2026-07-18T02:52:30.603360","CLASSIFICATION_TYPE":"U","MEAN_MOTION":14.91251509,"ECCENTRICITY":0.00036801,"INCLINATION":97.7607,"RA_OF_ASC_NODE":156.8772,"ARG_OF_PERICENTER":304.0498,"MEAN_ANOMALY":56.037,"EPHEMERIS_TYPE":0,"NORAD_CAT_ID":68494,"ELEMENT_SET_NO":999,"REV_AT_EPOCH":1633,"BSTAR":0.011878751,"MEAN_MOTION_DOT":0.00120139,"MEAN_MOTION_DDOT":0},{"OBJECT_NAME":"ICEYE-X73","OBJECT_ID":"2026-067CJ","EPOCH":"2026-07-18T03:28:50.002752","CLASSIFICATION_TYPE":"U","MEAN_MOTION":14.92355742,"ECCENTRICITY":0.0001779,"INCLINATION":97.7624,"RA_OF_ASC_NODE":156.9965,"ARG_OF_PERICENTER":142.886,"MEAN_ANOMALY":217.2482,"EPHEMERIS_TYPE":0,"NORAD_CAT_ID":68496,"ELEMENT_SET_NO":999,"REV_AT_EPOCH":1634,"BSTAR":0.00011431517,"MEAN_MOTION_DOT":0.00001113,"MEAN_MOTION_DDOT":0},{"OBJECT_NAME":"ICEYE-X75","OBJECT_ID":"2026-067CK","EPOCH":"2026-07-17T21:09:32.518368","CLASSIFICATION_TYPE":"U","MEAN_MOTION":14.92176429,"ECCENTRICITY":0.0001664,"INCLINATION":97.7607,"RA_OF_ASC_NODE":156.7027,"ARG_OF_PERICENTER":140.7892,"MEAN_ANOMALY":219.3448,"EPHEMERIS_TYPE":0,"NORAD_CAT_ID":68497,"ELEMENT_SET_NO":999,"REV_AT_EPOCH":1630,"BSTAR":0.000054365733,"MEAN_MOTION_DOT":0.00000498,"MEAN_MOTION_DDOT":0},{"OBJECT_NAME":"ICEYE-X74","OBJECT_ID":"2026-067CN","EPOCH":"2026-07-18T02:49:16.089312","CLASSIFICATION_TYPE":"U","MEAN_MOTION":14.91800739,"ECCENTRICITY":0.00006196,"INCLINATION":97.7633,"RA_OF_ASC_NODE":156.8917,"ARG_OF_PERICENTER":328.5986,"MEAN_ANOMALY":31.5196,"EPHEMERIS_TYPE":0,"NORAD_CAT_ID":68500,"ELEMENT_SET_NO":999,"REV_AT_EPOCH":1633,"BSTAR":0.00012006002,"MEAN_MOTION_DOT":0.00001155,"MEAN_MOTION_DDOT":0},{"OBJECT_NAME":"ICEYE-X76","OBJECT_ID":"2026-067CQ","EPOCH":"2026-07-17T20:17:06.963936","CLASSIFICATION_TYPE":"U","MEAN_MOTION":14.91753989,"ECCENTRICITY":0.00004458,"INCLINATION":97.7641,"RA_OF_ASC_NODE":156.6417,"ARG_OF_PERICENTER":283.6065,"MEAN_ANOMALY":76.5105,"EPHEMERIS_TYPE":0,"NORAD_CAT_ID":68502,"ELEMENT_SET_NO":999,"REV_AT_EPOCH":1629,"BSTAR":0.000057112825,"MEAN_MOTION_DOT":0.0000052,"MEAN_MOTION_DDOT":0}]}
